NORAD_CAT_ID,OBJECT_NAME,OBJECT_TYPE,EPOCH,MEAN_MOTION,ECCENTRICITY,INCLINATION,RA_OF_ASC_NODE,ARG_OF_PERICENTER,MEAN_ANOMALY,BSTAR,MEAN_MOTION_DOT,MEAN_MOTION_DDOT,TLE_LINE0,TLE_LINE1,TLE_LINE2,SEMIMAJOR_AXIS,PERIOD,APOGEE,PERIGEE,DECAYED
55417.0,STARLINK-5616,PAYLOAD,2023-04-13 10:15:58,15.699193,0.0003387,70.0,247.9905,271.5796,88.5011,1.6552e-05,1.778e-05,0.0,0 STARLINK-5616,1 55417U 23014AC  23103.42776221  .00001778  00000-0  16552-4 0  9998,2 55417  70.0000 247.9905 0003387 271.5796  88.5011 15.69919300 12408,6737.265,91.724,361.412,356.848,0.0
55417.0,STARLINK-5616,PAYLOAD,2023-04-13 16:22:58,15.69926769,0.0003197,70.0017,247.2774,265.6858,94.3972,3.4817e-05,3.976e-05,0.0,0 STARLINK-5616,1 55417U 23014AC  23103.68262564  .00003976  00000-0  34817-4 0  9992,2 55417  70.0017 247.2774 0003197 265.6858  94.3972 15.69926769 12447,6737.244,91.724,361.262,356.955,0.0
55417.0,STARLINK-5616,PAYLOAD,2023-04-14 12:15:45,15.69911009,0.0003786,69.9999,244.9463,272.6775,87.3987,-1.3074e-05,-1.784e-05,0.0,0 STARLINK-5616,1 55417U 23014AC  23104.51094900 -.00001784  00000-0 -13074-4 0  9991,2 55417  69.9999 244.9463 0003786 272.6775  87.3987 15.69911009 12575,6737.289,91.725,361.704,356.603,0.0
55417.0,STARLINK-5616,PAYLOAD,2023-04-15 12:43:48,15.69908195,0.0003205,70.0002,242.0792,268.7063,91.3765,-1.8398e-05,-2.423e-05,0.0,0 STARLINK-5616,1 55417U 23014AC  23105.53041937 -.00002423  00000-0 -18398-4 0  9991,2 55417  70.0002 242.0792 0003205 268.7063  91.3765 15.69908195 12738,6737.297,91.725,361.321,357.002,0.0
55417.0,STARLINK-5616,PAYLOAD,2023-04-15 18:50:48,15.69922002,0.0002875,70.0004,241.3639,263.1237,96.9631,1.2442e-05,1.284e-05,0.0,0 STARLINK-5616,1 55417U 23014AC  23105.78528121  .00001284  00000-0  12442-4 0  9999,2 55417  70.0004 241.3639 0002875 263.1237  96.9631 15.69922002 12776,6737.257,91.724,361.059,357.185,0.0
55417.0,STARLINK-5616,PAYLOAD,2023-04-16 11:40:04,15.69919824,0.0003417,69.9994,239.39,262.6913,97.3895,1.2738e-05,1.319e-05,0.0,0 STARLINK-5616,1 55417U 23014AC  23106.48616604  .00001319  00000-0  12738-4 0  9998,2 55417  69.9994 239.3900 0003417 262.6913  97.3895 15.69919824 12884,6737.263,91.724,361.431,356.826,0.0
55417.0,STARLINK-5616,PAYLOAD,2023-04-16 17:47:04,15.69930455,0.0003289,70.0009,238.6742,258.5995,101.4831,3.2786e-05,3.732e-05,0.0,0 STARLINK-5616,1 55417U 23014AC  23106.74102895  .00003732  00000-0  32786-4 0  9995,2 55417  70.0009 238.6742 0003289 258.5995 101.4831 15.69930455 12926,6737.233,91.724,361.314,356.882,0.0
55417.0,STARLINK-5616,PAYLOAD,2023-04-17 12:08:06,15.69922396,0.0002782,70.0017,236.526,247.1022,112.9881,3.5049e-05,4.003e-05,0.0,0 STARLINK-5616,1 55417U 23014AC  23107.50563362  .00004003  00000-0  35049-4 0  9997,2 55417  70.0017 236.5260 0002782 247.1022 112.9881 15.69922396 13040,6737.256,91.724,360.995,357.247,0.0
55417.0,STARLINK-5616,PAYLOAD,2023-04-17 18:15:07,15.69919898,0.0002501,70.0008,235.8092,276.8764,83.2147,2.2848e-05,2.535e-05,0.0,0 STARLINK-5616,1 55417U 23014AC  23107.76050456  .00002535  00000-0  22848-4 0  9991,2 55417  70.0008 235.8092 0002501 276.8764  83.2147 15.69919898 13088,6737.263,91.724,360.813,357.443,0.0
55417.0,STARLINK-5616,PAYLOAD,2023-04-18 09:32:38,15.69918993,0.0003563,69.9999,234.0179,264.0847,95.9942,1.832e-05,1.99e-05,0.0,0 STARLINK-5616,1 55417U 23014AC  23108.39766933  .00001990  00000-0  18320-4 0  9999,2 55417  69.9999 234.0179 0003563 264.0847  95.9942 15.69918993 13180,6737.266,91.724,361.531,356.73,0.0
55417.0,STARLINK-5616,PAYLOAD,2023-04-18 17:11:23,15.69929126,0.0003254,69.9998,233.1218,258.1142,101.9689,2.2011e-05,2.435e-05,0.0,0 STARLINK-5616,1 55417U 23014AC  23108.71624832  .00002435  00000-0  22011-4 0  9993,2 55417  69.9998 233.1218 0003254 258.1142 101.9689 15.69929126 13234,6737.237,91.724,361.294,356.909,0.0
55417.0,STARLINK-5616,PAYLOAD,2023-04-19 08:29:08,15.6945004,0.0012128,70.0017,231.3301,286.5908,73.3955,-0.0012089,-0.00141005,0.0,0 STARLINK-5616,1 55417U 23014AC  23109.35357291 -.00141005  00000-0 -12089-2 0  9997,2 55417  70.0017 231.3301 0012128 286.5908  73.3955 15.69450040 13330,6738.608,91.752,368.645,352.3,0.0
55417.0,STARLINK-5616,PAYLOAD,2023-04-19 22:00:00,15.67921351,0.0003489,70.0008,229.7504,274.5233,24.1505,-0.0097131,-0.00975019,0.0,0 STARLINK-5616,1 55417U 23014AC  23109.91667824 -.00975019  00000-0 -97131-2 0  9996,2 55417  70.0008 229.7504 0003489 274.5233  24.1505 15.67921351  1309,6742.987,91.841,367.205,362.499,0.0
55417.0,STARLINK-5616,PAYLOAD,2023-04-20 06:00:00,15.67232196,0.0003517,70.001,228.8166,271.0942,108.0847,-0.0091264,-0.00884588,0.0,0 STARLINK-5616,1 55417U 23014AC  23110.25001157 -.00884588  00000-0 -91264-2 0  9997,2 55417  70.0010 228.8166 0003517 271.0942 108.0847 15.67232196 13471,6744.964,91.882,369.201,364.456,0.0
55417.0,STARLINK-5616,PAYLOAD,2023-04-20 14:00:01,15.66557086,0.0003377,70.001,227.8837,275.5208,183.3863,-0.0092165,-0.00870581,0.0,0 STARLINK-5616,1 55417U 23014AC  23110.58334491 -.00870581  00000-0 -92165-2 0  9992,2 55417  70.0010 227.8837 0003377 275.5208 183.3863 15.66557086  1303,6746.901,91.921,371.045,366.488,0.0
55417.0,STARLINK-5616,PAYLOAD,2023-04-20 22:00:00,15.65957443,0.000321,70.0009,226.9515,274.5459,263.2714,-0.010361,-0.00961481,0.0,0 STARLINK-5616,1 55417U 23014AC  23110.91667824 -.00961481  00000-0 -10361-1 0  9995,2 55417  70.0009 226.9515 0003210 274.5459 263.2714 15.65957443  1300,6748.624,91.957,372.655,368.322,0.0
55417.0,STARLINK-5616,PAYLOAD,2023-04-21 14:00:01,15.64601031,0.0003456,70.0014,225.0904,272.4775,60.8784,-0.0099227,-0.00879664,0.0,0 STARLINK-5616,1 55417U 23014AC  23111.58334491 -.00879664  00000-0 -99227-2 0  9990,2 55417  70.0014 225.0904 0003456 272.4775  60.8784 15.64601031  1304,6752.523,92.036,376.722,372.055,0.0
55417.0,STARLINK-5616,PAYLOAD,2023-04-21 22:00:00,15.63992904,0.000346,70.0009,224.161,272.6406,137.2839,-0.011061,-0.00950152,0.0,0 STARLINK-5616,1 55417U 23014AC  23111.91667824 -.00950152  00000-0 -11061-1 0  9997,2 55417  70.0009 224.1610 0003460 272.6406 137.2839 15.63992904  1301,6754.274,92.072,378.476,373.802,0.0
55417.0,STARLINK-5616,PAYLOAD,2023-04-22 14:00:01,15.62643466,0.0003288,70.0009,222.305,271.791,288.9732,-0.010695,-0.00877708,0.0,0 STARLINK-5616,1 55417U 23014AC  23112.58334491 -.00877708  00000-0 -10695-1 0  9999,2 55417  70.0009 222.3050 0003288 271.7910 288.9732 15.62643466  1308,6758.162,92.152,382.249,377.805,0.0
55417.0,STARLINK-5616,PAYLOAD,2023-04-22 22:00:01,15.62039793,0.0003325,70.0007,221.3784,271.0065,4.0444,-0.012086,-0.00960356,0.0,0 STARLINK-5616,1 55417U 23014AC  23112.91668981 -.00960356  00000-0 -12086-1 0  9998,2 55417  70.0007 221.3784 0003325 271.0065   4.0444 15.62039793  1304,6759.903,92.187,384.015,379.52,0.0
55417.0,STARLINK-5616,PAYLOAD,2023-04-23 06:00:00,15.61376422,0.0003573,70.001,220.453,266.7619,81.6779,-0.011798,-0.00917807,0.0,0 STARLINK-5616,1 55417U 23014AC  23113.25001157 -.00917807  00000-0 -11798-1 0  9994,2 55417  70.0010 220.4530 0003573 266.7619  81.6779 15.61376422 13945,6761.817,92.226,386.098,381.266,0.0
55417.0,STARLINK-5616,PAYLOAD,2023-04-23 14:00:01,15.60692593,0.0003617,70.0009,219.5283,273.2636,147.8687,-0.011702,-0.00889268,0.0,0 STARLINK-5616,1 55417U 23014AC  23113.58334491 -.00889268  00000-0 -11702-1 0  9994,2 55417  70.0009 219.5283 0003617 273.2636 147.8687 15.60692593  1307,6763.792,92.267,388.104,383.211,0.0
55417.0,STARLINK-5616,PAYLOAD,2023-04-23 22:00:00,15.60078991,0.0003516,70.0004,218.6043,273.8008,219.2073,-0.012885,-0.00950136,0.0,0 STARLINK-5616,1 55417U 23014AC  23113.91667824 -.00950136  00000-0 -12885-1 0  9996,2 55417  70.0004 218.6043 0003516 273.8008 219.2073 15.60078991  1306,6765.566,92.303,389.809,385.052,0.0
55417.0,STARLINK-5616,PAYLOAD,2023-04-24 14:00:01,15.5872622,0.000367,70.0005,216.759,272.7499,1.7089,-0.012297,-0.00868674,0.0,0 STARLINK-5616,1 55417U 23014AC  23114.58334491 -.00868674  00000-0 -12297-1 0  9993,2 55417  70.0005 216.7590 0003670 272.7499   1.7089 15.58726220  1309,6769.48,92.383,393.829,388.86,0.0
55417.0,STARLINK-5616,PAYLOAD,2023-04-25 06:00:00,15.57467083,0.0003529,70.0003,214.9177,270.7114,142.0356,-0.013856,-0.00927465,0.0,0 STARLINK-5616,1 55417U 23014AC  23115.25001157 -.00927465  00000-0 -13856-1 0  9994,2 55417  70.0003 214.9177 0003529 270.7114 142.0356 15.57467083 14255,6773.128,92.458,397.383,392.602,0.0
55417.0,STARLINK-5616,PAYLOAD,2023-04-25 14:00:01,15.56764277,0.0003451,69.9999,213.9984,275.4245,205.3873,-0.013086,-0.0085935,0.0,0 STARLINK-5616,1 55417U 23014AC  23115.58335648 -.00859350  00000-0 -13086-1 0  9997,2 55417  69.9999 213.9984 0003451 275.4245 205.3873 15.56764277  1305,6775.166,92.5,399.369,394.693,0.0
55417.0,STARLINK-5616,PAYLOAD,2023-04-26 14:00:01,15.54809862,0.0003375,70.0,211.2456,270.2145,49.778,-0.014093,-0.0086063,0.0,0 STARLINK-5616,1 55417U 23014AC  23116.58334491 -.00860630  00000-0 -14093-1 0  9995,2 55417  70.0000 211.2456 0003375 270.2145  49.7780 15.54809862  1308,6780.842,92.616,404.996,400.419,0.0
55417.0,STARLINK-5616,PAYLOAD,2023-04-26 22:00:00,15.54194666,0.0003346,69.9996,210.3298,270.4282,114.4057,-0.015758,-0.00933444,0.0,0 STARLINK-5616,1 55417U 23014AC  23116.91667824 -.00933444  00000-0 -15758-1 0  9994,2 55417  69.9996 210.3298 0003346 270.4282 114.4057 15.54194666  1301,6782.632,92.652,406.766,402.227,0.0
55417.0,STARLINK-5616,PAYLOAD,2023-04-27 06:00:02,15.53562172,0.0003306,69.9999,209.4148,268.9043,180.0494,-0.016316,-0.00943365,0.0,0 STARLINK-5616,1 55417U 23014AC  23117.25002315 -.00943365  00000-0 -16316-1 0  9994,2 55417  69.9999 209.4148 0003306 268.9043 180.0494 15.53562172 14566,6784.472,92.69,408.58,404.094,0.0
55417.0,STARLINK-5616,PAYLOAD,2023-04-27 14:00:01,15.52856925,0.000317,69.9997,208.501,276.4575,235.8022,-0.015212,-0.0086456,0.0,0 STARLINK-5616,1 55417U 23014AC  23117.58335648 -.00864560  00000-0 -15212-1 0  9991,2 55417  69.9997 208.5010 0003170 276.4575 235.8022 15.52856925  1300,6786.526,92.732,410.543,406.24,0.0
